[{"city_id":1,"name":"El Arenal","postal_code":"370274536"},
{"city_id":2,"name":"Kiarajangkung","postal_code":"807581420"},
{"city_id":3,"name":"Taytayan","postal_code":"392165112"},
{"city_id":4,"name":"Sartrouville","postal_code":"483313286"},
{"city_id":5,"name":"Locminé","postal_code":"275186134"},
{"city_id":6,"name":"Saxin","postal_code":"764581403"},
{"city_id":7,"name":"Donghe","postal_code":"921211705"},
{"city_id":8,"name":"San Miguel Ixtahuacán","postal_code":"689014451"},
{"city_id":9,"name":"San Francisco","postal_code":"850122702"},
{"city_id":10,"name":"Cikijing","postal_code":"857128000"},
{"city_id":11,"name":"Marystown","postal_code":"015101037"},
{"city_id":12,"name":"Aco","postal_code":"317991378"},
{"city_id":13,"name":"New Kingston","postal_code":"875057601"},
{"city_id":14,"name":"Perechyn","postal_code":"712512062"},
{"city_id":15,"name":"Banjar Taro Kelod","postal_code":"816111159"},
{"city_id":16,"name":"Ad Dujayl","postal_code":"260036379"},
{"city_id":17,"name":"Siemiatycze","postal_code":"670451047"},
{"city_id":18,"name":"Araras","postal_code":"561641890"},
{"city_id":19,"name":"Tiehe","postal_code":"645063488"},
{"city_id":20,"name":"Quanjiang","postal_code":"604405114"},
{"city_id":21,"name":"Almere Haven","postal_code":"378626079"},
{"city_id":22,"name":"Gangjia","postal_code":"626811465"},
{"city_id":23,"name":"Lille","postal_code":"766930276"},
{"city_id":24,"name":"Nankou","postal_code":"236670001"},
{"city_id":25,"name":"Borova","postal_code":"422412400"},
{"city_id":26,"name":"Puerto Barrios","postal_code":"627047450"},
{"city_id":27,"name":"Feyẕābād","postal_code":"665023381"},
{"city_id":28,"name":"Mortka","postal_code":"12078"},
{"city_id":29,"name":"Severomorsk","postal_code":"076312423"},
{"city_id":30,"name":"Nikolinci","postal_code":"33150"},
{"city_id":31,"name":"Onueke","postal_code":"331782775"},
{"city_id":32,"name":"Gavião","postal_code":"554171813"},
{"city_id":33,"name":"Quvasoy","postal_code":"022416457"},
{"city_id":34,"name":"Jedlina-Zdrój","postal_code":"110401402"},
{"city_id":35,"name":"Velika Kladuša","postal_code":"481180457"},
{"city_id":36,"name":"Degan","postal_code":"495032560"},
{"city_id":37,"name":"Wurigelebur","postal_code":"890052213"},
{"city_id":38,"name":"Šmarje pri Jelšah","postal_code":"770155710"},
{"city_id":39,"name":"Laju Kidul","postal_code":"826331450"},
{"city_id":40,"name":"Inazawa","postal_code":"846480412"},
{"city_id":41,"name":"Yayao","postal_code":"42765"},
{"city_id":42,"name":"Brest","postal_code":"631504954"},
{"city_id":43,"name":"Zagnitkiv","postal_code":"752401331"},
{"city_id":44,"name":"Tabatinga","postal_code":"77054"},
{"city_id":45,"name":"Haputale","postal_code":"300473473"},
{"city_id":46,"name":"Chornorudka","postal_code":"606954088"},
{"city_id":47,"name":"Zainsk","postal_code":"387512450"},
{"city_id":48,"name":"Kunheda Woerzu Manzu","postal_code":"790143315"},
{"city_id":49,"name":"Zhongbu","postal_code":"850183953"},
{"city_id":50,"name":"Youshan","postal_code":"194380907"},
{"city_id":51,"name":"San Vicente","postal_code":"370274536"},
{"city_id":52,"name":"Ehu","postal_code":"78155"},
{"city_id":53,"name":"Vnorovy","postal_code":"648043503"},
{"city_id":54,"name":"Alvito de São Pedro","postal_code":"773794034"},
{"city_id":55,"name":"Mosteiros","postal_code":"655488542"},
{"city_id":56,"name":"Palmitas","postal_code":"331434679"},
{"city_id":57,"name":"Greensboro","postal_code":"855019447"},
{"city_id":58,"name":"Ribeiro","postal_code":"814160008"},
{"city_id":59,"name":"Olsztynek","postal_code":"606860081"},
{"city_id":60,"name":"A-da-Gorda","postal_code":"402521648"},
{"city_id":61,"name":"Kongolo","postal_code":"921212834"},
{"city_id":62,"name":"Qiganjidie","postal_code":"622741034"},
{"city_id":63,"name":"Lindavista","postal_code":"750243178"},
{"city_id":64,"name":"Cachada","postal_code":"959882601"},
{"city_id":65,"name":"Žabčice","postal_code":"461684498"},
{"city_id":66,"name":"Karangasem","postal_code":"074702111"},
{"city_id":67,"name":"Khok Sung","postal_code":"56628"},
{"city_id":68,"name":"Khāliş","postal_code":"331553009"},
{"city_id":69,"name":"Imotski","postal_code":"946181032"},
{"city_id":70,"name":"Thạnh Mỹ","postal_code":"514422614"},
{"city_id":71,"name":"Bom Despacho","postal_code":"482772930"},
{"city_id":72,"name":"Santa Lucía","postal_code":"900747445"},
{"city_id":73,"name":"Mazkeret Batya","postal_code":"770497220"},
{"city_id":74,"name":"Sakchu-ŭp","postal_code":"452637951"},
{"city_id":75,"name":"Campina Grande","postal_code":"286460459"},
{"city_id":76,"name":"Montecillo","postal_code":"396310639"},
{"city_id":77,"name":"Los Cóndores","postal_code":"597156902"},
{"city_id":78,"name":"Wenfu","postal_code":"810731622"},
{"city_id":79,"name":"Zimovniki","postal_code":"212093744"},
{"city_id":80,"name":"Malikisi","postal_code":"681143591"},
{"city_id":81,"name":"Wyszki","postal_code":"232271149"},
{"city_id":82,"name":"Sremska Mitrovica","postal_code":"900573605"},
{"city_id":83,"name":"Xiakou","postal_code":"352427509"},
{"city_id":84,"name":"San Agustín","postal_code":"475671247"},
{"city_id":85,"name":"Vyshneve","postal_code":"603022519"},
{"city_id":86,"name":"Žihle","postal_code":"274011020"},
{"city_id":87,"name":"Kocēni","postal_code":"981240789"},
{"city_id":88,"name":"San Luis","postal_code":"105094048"},
{"city_id":89,"name":"Dāngām","postal_code":"722114316"},
{"city_id":90,"name":"Prínos","postal_code":"242025977"},
{"city_id":91,"name":"Shangdongjie","postal_code":"933012006"},
{"city_id":92,"name":"Kumla","postal_code":"382011649"},
{"city_id":93,"name":"Pangkalanbuun","postal_code":"976015806"},
{"city_id":94,"name":"Sabon Gari-Nangere","postal_code":"946123466"},
{"city_id":95,"name":"Kirovsk","postal_code":"189401873"},
{"city_id":96,"name":"Arroyo Seco","postal_code":"321596340"},
{"city_id":97,"name":"Kwatarkwashi","postal_code":"402521648"},
{"city_id":98,"name":"Marapanim","postal_code":"170330858"},
{"city_id":99,"name":"Gaizhou","postal_code":"328034158"},
{"city_id":100,"name":"Paris 06","postal_code":"638411042"},
{"city_id":101,"name":"Yorosso","postal_code":"989440719"},
{"city_id":102,"name":"Maintirano","postal_code":"315013547"},
{"city_id":103,"name":"Kuloy","postal_code":"606731299"},
{"city_id":104,"name":"Mozdok","postal_code":"370275339"},
{"city_id":105,"name":"Kruty","postal_code":"167431238"},
{"city_id":106,"name":"Kašina","postal_code":"466011033"},
{"city_id":107,"name":"Créteil","postal_code":"314046220"},
{"city_id":108,"name":"Campo Viera","postal_code":"60453"},
{"city_id":109,"name":"Henglian","postal_code":"240111713"},
{"city_id":110,"name":"Yongping","postal_code":"521012325"},
{"city_id":111,"name":"Tajike’abati","postal_code":"183013006"},
{"city_id":112,"name":"Nadi","postal_code":"125835428"},
{"city_id":113,"name":"Tongda","postal_code":"478042780"},
{"city_id":114,"name":"Tacheng","postal_code":"726012911"},
{"city_id":115,"name":"Weixing","postal_code":"675303633"},
{"city_id":116,"name":"Kizlyar","postal_code":"816014227"},
{"city_id":117,"name":"Qinlan","postal_code":"816022270"},
{"city_id":118,"name":"Pazin","postal_code":"837061340"},
{"city_id":119,"name":"Zblewo","postal_code":"104612300"},
{"city_id":120,"name":"Suzhou","postal_code":"44460"},
{"city_id":121,"name":"San Jose","postal_code":"024725018"},
{"city_id":122,"name":"Bogra","postal_code":"520570359"},
{"city_id":123,"name":"Mirotice","postal_code":"220605901"},
{"city_id":124,"name":"Phuthaditjhaba","postal_code":"653021547"},
{"city_id":125,"name":"Inabaan Sur","postal_code":"774012324"},
{"city_id":126,"name":"Verkh-Usugli","postal_code":"953541249"},
{"city_id":127,"name":"Anticala","postal_code":"365023014"},
{"city_id":128,"name":"San Juan de Dios","postal_code":"010402747"},
{"city_id":129,"name":"Nueva Germania","postal_code":"850449142"},
{"city_id":130,"name":"Washington","postal_code":"650519780"},
{"city_id":131,"name":"Pingyi","postal_code":"770028321"},
{"city_id":132,"name":"Nangaroro","postal_code":"331433632"},
{"city_id":133,"name":"Hengshui","postal_code":"322105459"},
{"city_id":134,"name":"Abucay","postal_code":"631505673"},
{"city_id":135,"name":"Shibata","postal_code":"814014212"},
{"city_id":136,"name":"Ngrejo","postal_code":"752840795"},
{"city_id":137,"name":"Jiasi","postal_code":"109961197"},
{"city_id":138,"name":"Ensanche Luperón","postal_code":"183013006"},
{"city_id":139,"name":"Bilüü","postal_code":"138202629"},
{"city_id":140,"name":"San Patricio","postal_code":"662111206"},
{"city_id":141,"name":"Duhu","postal_code":"625264368"},
{"city_id":142,"name":"Auxerre","postal_code":"600508409"},
{"city_id":143,"name":"Batusangkar","postal_code":"640933101"},
{"city_id":144,"name":"Maintang","postal_code":"303443417"},
{"city_id":145,"name":"Shanjiang","postal_code":"101500708"},
{"city_id":146,"name":"Bayt ‘Adhāqah","postal_code":"902422804"},
{"city_id":147,"name":"Yeniköy","postal_code":"086902801"},
{"city_id":148,"name":"Warungawi","postal_code":"427179696"},
{"city_id":149,"name":"Lavaltrie","postal_code":"415020432"},
{"city_id":150,"name":"Badong","postal_code":"980554934"},
{"city_id":151,"name":"Souto","postal_code":"945533156"},
{"city_id":152,"name":"Kista","postal_code":"655369217"},
{"city_id":153,"name":"Victoria","postal_code":"462563761"},
{"city_id":154,"name":"Botoh","postal_code":"076322705"},
{"city_id":155,"name":"Huangyuan Chengguanzhen","postal_code":"232271149"},
{"city_id":156,"name":"Oton","postal_code":"421020630"},
{"city_id":157,"name":"Quiruvilca","postal_code":"346730730"},
{"city_id":158,"name":"Ciudad Tecún Umán","postal_code":"474415282"},
{"city_id":159,"name":"Sidenreng","postal_code":"770761300"},
{"city_id":160,"name":"Wuhu","postal_code":"797016344"},
{"city_id":161,"name":"Jiajiaying","postal_code":"208781469"},
{"city_id":162,"name":"Novotitarovskaya","postal_code":"277100001"},
{"city_id":163,"name":"Genova","postal_code":"553443248"},
{"city_id":164,"name":"Xianyan","postal_code":"799205001"},
{"city_id":165,"name":"Rakaia","postal_code":"079013570"},
{"city_id":166,"name":"Ikeda","postal_code":"910103012"},
{"city_id":167,"name":"Ampahana","postal_code":"467332303"},
{"city_id":168,"name":"Saint-Denis","postal_code":"354041511"},
{"city_id":169,"name":"Batan","postal_code":"447182545"},
{"city_id":170,"name":"Rukunlima Bawah","postal_code":"789571117"},
{"city_id":171,"name":"Zhutang","postal_code":"714832945"},
{"city_id":172,"name":"Ankazobe","postal_code":"900845755"},
{"city_id":173,"name":"Manacsac","postal_code":"063602740"},
{"city_id":174,"name":"Lũng Hồ","postal_code":"767111730"},
{"city_id":175,"name":"Kępno","postal_code":"946081872"},
{"city_id":176,"name":"Longzui","postal_code":"431603701"},
{"city_id":177,"name":"Gobernador Gálvez","postal_code":"641115941"},
{"city_id":178,"name":"Conselheiro Lafaiete","postal_code":"799367656"},
{"city_id":179,"name":"Londrina","postal_code":"337593012"},
{"city_id":180,"name":"Sokolac","postal_code":"87710"},
{"city_id":181,"name":"Ezeiza","postal_code":"688621275"},
{"city_id":182,"name":"Krajan","postal_code":"331576932"},
{"city_id":183,"name":"Victoria","postal_code":"44833"},
{"city_id":184,"name":"Sanjia","postal_code":"152202759"},
{"city_id":185,"name":"T’ianet’i","postal_code":"19104"},
{"city_id":186,"name":"Xintian","postal_code":"490075295"},
{"city_id":187,"name":"Biny Selo","postal_code":"441225203"},
{"city_id":188,"name":"Les Clayes-sous-Bois","postal_code":"137537407"},
{"city_id":189,"name":"Huangjin","postal_code":"588013821"},
{"city_id":190,"name":"Jūrīsh","postal_code":"486702000"},
{"city_id":191,"name":"Mingguang","postal_code":"570785341"},
{"city_id":192,"name":"Gapluk","postal_code":"658075209"},
{"city_id":193,"name":"Tangjia","postal_code":"283090908"},
{"city_id":194,"name":"Palmas De Gran Canaria, Las","postal_code":"77423"},
{"city_id":195,"name":"Huangshanguan","postal_code":"624502553"},
{"city_id":196,"name":"Lianhe","postal_code":"190411124"},
{"city_id":197,"name":"Richards Bay","postal_code":"716713459"},
{"city_id":198,"name":"Mörrum","postal_code":"900888837"},
{"city_id":199,"name":"Guantian","postal_code":"959666118"},
{"city_id":200,"name":"Bayuwan","postal_code":"440222711"},
{"city_id":201,"name":"Rancharia","postal_code":"714180899"},
{"city_id":202,"name":"Las Varillas","postal_code":"701701000"},
{"city_id":203,"name":"Atarodangwautu","postal_code":"959322954"},
{"city_id":204,"name":"Hoàn Kiếm","postal_code":"548407827"},
{"city_id":205,"name":"Trzebiatów","postal_code":"286075049"},
{"city_id":206,"name":"Sipoholon","postal_code":"928684203"},
{"city_id":207,"name":"Ngreco","postal_code":"087538182"},
{"city_id":208,"name":"Bibai","postal_code":"633791513"},
{"city_id":209,"name":"Giồng Trôm","postal_code":"497201931"},
{"city_id":210,"name":"Alingsås","postal_code":"331351960"},
{"city_id":211,"name":"Tuymazy","postal_code":"450052584"},
{"city_id":212,"name":"Kirawsk","postal_code":"754031059"},
{"city_id":213,"name":"Sitularang Landeuh","postal_code":"918013166"},
{"city_id":214,"name":"Kinel’-Cherkassy","postal_code":"750756135"},
{"city_id":215,"name":"Gaborone","postal_code":"891022329"},
{"city_id":216,"name":"Iktābah","postal_code":"797352700"},
{"city_id":217,"name":"Iwye","postal_code":"754552338"},
{"city_id":218,"name":"Ivatsevichy","postal_code":"339047169"},
{"city_id":219,"name":"Yuzui","postal_code":"804800613"},
{"city_id":220,"name":"Lopez Jaena","postal_code":"631366119"},
{"city_id":221,"name":"Yangkang","postal_code":"490909701"},
{"city_id":222,"name":"Thị Trấn Nước Hai","postal_code":"468955600"},
{"city_id":223,"name":"Hetan","postal_code":"082059401"},
{"city_id":224,"name":"Pingdi","postal_code":"331695710"},
{"city_id":225,"name":"Onzaga","postal_code":"751492434"},
{"city_id":226,"name":"Bagamoyo","postal_code":"544495703"},
{"city_id":227,"name":"Zhangting","postal_code":"330644432"},
{"city_id":228,"name":"Ōkawara","postal_code":"331442153"},
{"city_id":229,"name":"Popasna","postal_code":"080351702"},
{"city_id":230,"name":"Luniao","postal_code":"452710307"},
{"city_id":231,"name":"Tiassalé","postal_code":"236084410"},
{"city_id":232,"name":"Klippan","postal_code":"287134517"},
{"city_id":233,"name":"Magarao","postal_code":"191075244"},
{"city_id":234,"name":"Magersari","postal_code":"891021983"},
{"city_id":235,"name":"Höganäs","postal_code":"601603755"},
{"city_id":236,"name":"Galle","postal_code":"840104933"},
{"city_id":237,"name":"Khursā","postal_code":"290031330"},
{"city_id":238,"name":"Szubin","postal_code":"382421030"},
{"city_id":239,"name":"Verdizela","postal_code":"656052365"},
{"city_id":240,"name":"Eckerö","postal_code":"174022231"},
{"city_id":241,"name":"Saltsjö-Boo","postal_code":"387713227"},
{"city_id":242,"name":"Blokdesa Situgede","postal_code":"370275339"},
{"city_id":243,"name":"Eirol","postal_code":"283410187"},
{"city_id":244,"name":"Tsagaanchuluut","postal_code":"750930012"},
{"city_id":245,"name":"Erenhot","postal_code":"660441328"},
{"city_id":246,"name":"Danao","postal_code":"281642011"},
{"city_id":247,"name":"Kobyzhcha","postal_code":"140685008"},
{"city_id":248,"name":"Tchaourou","postal_code":"331271053"},
{"city_id":249,"name":"Tiyuguan","postal_code":"722056202"},
{"city_id":250,"name":"El Zapote","postal_code":"427171080"},
{"city_id":251,"name":"Boulogne-Billancourt","postal_code":"420037901"},
{"city_id":252,"name":"Kowalewo Pomorskie","postal_code":"335634748"},
{"city_id":253,"name":"Kampong Chhnang","postal_code":"647723223"},
{"city_id":254,"name":"Zhaixi","postal_code":"232271149"},
{"city_id":255,"name":"Puzi","postal_code":"928684203"},
{"city_id":256,"name":"Dasuk","postal_code":"486700001"},
{"city_id":257,"name":"Tabu","postal_code":"653403702"},
{"city_id":258,"name":"Wujing","postal_code":"967770040"},
{"city_id":259,"name":"Tunduma","postal_code":"906213341"},
{"city_id":260,"name":"Congonhas","postal_code":"676541406"},
{"city_id":261,"name":"San Pedro","postal_code":"630802354"},
{"city_id":262,"name":"Antsirabe","postal_code":"973832037"},
{"city_id":263,"name":"El Hermel","postal_code":"331614829"},
{"city_id":264,"name":"Ruda Maleniecka","postal_code":"461431074"},
{"city_id":265,"name":"Houston","postal_code":"330254100"},
{"city_id":266,"name":"Onoda","postal_code":"377434647"},
{"city_id":267,"name":"Cilampuyang","postal_code":"805389071"},
{"city_id":268,"name":"Sande São Lourenço","postal_code":"423300111"},
{"city_id":269,"name":"Manizales","postal_code":"992042307"},
{"city_id":270,"name":"Bunobogu","postal_code":"982011409"},
{"city_id":271,"name":"Koroyo","postal_code":"619442460"},
{"city_id":272,"name":"Killarney","postal_code":"606731299"},
{"city_id":273,"name":"Xinxu","postal_code":"752844339"},
{"city_id":274,"name":"Şurmān","postal_code":"741363319"},
{"city_id":275,"name":"Nowe","postal_code":"986622897"},
{"city_id":276,"name":"Paraiso","postal_code":"951244006"},
{"city_id":277,"name":"Ortiga","postal_code":"759614027"},
{"city_id":278,"name":"Madrid","postal_code":"921103115"},
{"city_id":279,"name":"Sebeta","postal_code":"435061690"},
{"city_id":280,"name":"General Emilio Aguinaldo","postal_code":"481924668"},
{"city_id":281,"name":"Nagoya-shi","postal_code":"319011575"},
{"city_id":282,"name":"Ying’ebu","postal_code":"900890121"},
{"city_id":283,"name":"Xijiao","postal_code":"641801143"},
{"city_id":284,"name":"České Meziříčí","postal_code":"303848886"},
{"city_id":285,"name":"Jiangning","postal_code":"675502429"},
{"city_id":286,"name":"Boyang","postal_code":"262411484"},
{"city_id":287,"name":"Santa Cruz","postal_code":"678640820"},
{"city_id":288,"name":"Homeyo","postal_code":"415020432"},
{"city_id":289,"name":"Porlamar","postal_code":"982744127"},
{"city_id":290,"name":"Campos Belos","postal_code":"178376343"},
{"city_id":291,"name":"Gorbunki","postal_code":"163541404"},
{"city_id":292,"name":"Nuku‘alofa","postal_code":"452111820"},
{"city_id":293,"name":"São Francisco do Conde","postal_code":"735039042"},
{"city_id":294,"name":"Qiujia","postal_code":"461352408"},
{"city_id":295,"name":"Sosnówka","postal_code":"606112908"},
{"city_id":296,"name":"Jiazi","postal_code":"958172308"},
{"city_id":297,"name":"Lederaba","postal_code":"467332303"},
{"city_id":298,"name":"Zhuanqukou","postal_code":"750575055"},
{"city_id":299,"name":"Pavlovka","postal_code":"461681925"},
{"city_id":300,"name":"Shitouhe","postal_code":"850160008"},
{"city_id":301,"name":"Horrom","postal_code":"207353358"},
{"city_id":302,"name":"San Juan Sacatepéquez","postal_code":"028954712"},
{"city_id":303,"name":"Caibarién","postal_code":"330094488"},
{"city_id":304,"name":"Longka","postal_code":"647351192"},
{"city_id":305,"name":"Charlotte Amalie","postal_code":"421023560"},
{"city_id":306,"name":"Działoszyce","postal_code":"181023490"},
{"city_id":307,"name":"Lirang","postal_code":"295269142"},
{"city_id":308,"name":"Laspezia","postal_code":"105624702"},
{"city_id":309,"name":"Blainville","postal_code":"720153353"},
{"city_id":310,"name":"Tajrīsh","postal_code":"441171714"},
{"city_id":311,"name":"La Rioja","postal_code":"790813441"},
{"city_id":312,"name":"Tunzhai","postal_code":"303285834"},
{"city_id":313,"name":"Catujal","postal_code":"336141955"},
{"city_id":314,"name":"Yuandun","postal_code":"100191147"},
{"city_id":315,"name":"Granja","postal_code":"730704006"},
{"city_id":316,"name":"Koronadal","postal_code":"731356609"},
{"city_id":317,"name":"Sigavé","postal_code":"498550640"},
{"city_id":318,"name":"Jiancheng","postal_code":"359765766"},
{"city_id":319,"name":"Yuza","postal_code":"165092603"},
{"city_id":320,"name":"Groznyy","postal_code":"106014615"},
{"city_id":321,"name":"Khok Charoen","postal_code":"327805667"},
{"city_id":322,"name":"Indianapolis","postal_code":"60169"},
{"city_id":323,"name":"Dayton","postal_code":"188489702"},
{"city_id":324,"name":"Labney","postal_code":"100296500"},
{"city_id":325,"name":"Santa Fe","postal_code":"547016122"},
{"city_id":326,"name":"Caminaca","postal_code":"752660599"},
{"city_id":327,"name":"Gamping Lor","postal_code":"605407430"},
{"city_id":328,"name":"Bocos","postal_code":"99362"},
{"city_id":329,"name":"Muan","postal_code":"553443248"},
{"city_id":330,"name":"Gunungputri","postal_code":"953541249"},
{"city_id":331,"name":"Mao’ershan","postal_code":"984021900"},
{"city_id":332,"name":"Ziębice","postal_code":"748491415"},
{"city_id":333,"name":"Gabú","postal_code":"646832402"},
{"city_id":334,"name":"Houjia","postal_code":"761094831"},
{"city_id":335,"name":"Baratã","postal_code":"021184001"},
{"city_id":336,"name":"Losari","postal_code":"564614900"},
{"city_id":337,"name":"Ħamrun","postal_code":"226012896"},
{"city_id":338,"name":"Wang Chan","postal_code":"532023216"},
{"city_id":339,"name":"San Teodoro","postal_code":"793731310"},
{"city_id":340,"name":"Osiek","postal_code":"512450528"},
{"city_id":341,"name":"Haicheng","postal_code":"941430001"},
{"city_id":342,"name":"Springbok","postal_code":"673574948"},
{"city_id":343,"name":"Stutterheim","postal_code":"427171080"},
{"city_id":344,"name":"Los Fresnos","postal_code":"218111156"},
{"city_id":345,"name":"Santo Antônio do Içá","postal_code":"29164"},
{"city_id":346,"name":"Seso","postal_code":"476308940"},
{"city_id":347,"name":"Pa Sang","postal_code":"481672277"},
{"city_id":348,"name":"Kebonsari Kidul","postal_code":"60614"},
{"city_id":349,"name":"Sabana Grande de Boyá","postal_code":"917242048"},
{"city_id":350,"name":"Ban Ratsada","postal_code":"488119693"},
{"city_id":351,"name":"Maksatikha","postal_code":"37403"},
{"city_id":352,"name":"Požarevac","postal_code":"704581136"},
{"city_id":353,"name":"Mbomba","postal_code":"160014646"},
{"city_id":354,"name":"Kista","postal_code":"164071152"},
{"city_id":355,"name":"Ash Shaykh ‘Uthmān","postal_code":"462261466"},
{"city_id":356,"name":"Telangi Satu","postal_code":"799033251"},
{"city_id":357,"name":"Turinsk","postal_code":"945454345"},
{"city_id":358,"name":"Kuala Lumpur","postal_code":"103081664"},
{"city_id":359,"name":"Lonya Chico","postal_code":"674602326"},
{"city_id":360,"name":"København","postal_code":"787316026"},
{"city_id":361,"name":"Langzhong","postal_code":"488131629"},
{"city_id":362,"name":"Zhangjiayuan","postal_code":"606860081"},
{"city_id":363,"name":"Oli","postal_code":"708084375"},
{"city_id":364,"name":"Lingqiao","postal_code":"918013166"},
{"city_id":365,"name":"Granada","postal_code":"453423660"},
{"city_id":366,"name":"Banjar Asahduren","postal_code":"450448791"},
{"city_id":367,"name":"Joaquín Suárez","postal_code":"83714"},
{"city_id":368,"name":"Larache","postal_code":"385570037"},
{"city_id":369,"name":"Évreux","postal_code":"30303"},
{"city_id":370,"name":"Krasnokholmskiy","postal_code":"730800511"},
{"city_id":371,"name":"Gastoúni","postal_code":"921303320"},
{"city_id":372,"name":"Gordeyevka","postal_code":"498550640"},
{"city_id":373,"name":"Pampamarca","postal_code":"921211705"},
{"city_id":374,"name":"Herceg-Novi","postal_code":"505362516"},
{"city_id":375,"name":"Lagunas","postal_code":"187043721"},
{"city_id":376,"name":"Jiangmen","postal_code":"110422000"},
{"city_id":377,"name":"Mashi","postal_code":"485035993"},
{"city_id":378,"name":"Juliaca","postal_code":"380081532"},
{"city_id":379,"name":"Rodas","postal_code":"158011440"},
{"city_id":380,"name":"Moutnice","postal_code":"779793025"},
{"city_id":381,"name":"Guohe","postal_code":"829350219"},
{"city_id":382,"name":"Sölvesborg","postal_code":"191826594"},
{"city_id":383,"name":"Kamennogorsk","postal_code":"726532955"},
{"city_id":384,"name":"Mohelno","postal_code":"136199703"},
{"city_id":385,"name":"Koncang","postal_code":"604877187"},
{"city_id":386,"name":"Bagong Barrio","postal_code":"624541167"},
{"city_id":387,"name":"Balidian","postal_code":"462025166"},
{"city_id":388,"name":"Cibitung","postal_code":"028402209"},
{"city_id":389,"name":"Hedong","postal_code":"655843729"},
{"city_id":390,"name":"Misau","postal_code":"752677044"},
{"city_id":391,"name":"Zhengdonglu","postal_code":"539481931"},
{"city_id":392,"name":"Louredo","postal_code":"374032147"},
{"city_id":393,"name":"Cantapoy","postal_code":"841071866"},
{"city_id":394,"name":"Frankfurt am Main","postal_code":"495032560"},
{"city_id":395,"name":"Piracicaba","postal_code":"170554325"},
{"city_id":396,"name":"Parreira","postal_code":"688250100"},
{"city_id":397,"name":"Néa Smýrni","postal_code":"021272245"},
{"city_id":398,"name":"Tojal","postal_code":"98331"},
{"city_id":399,"name":"Dangcalan","postal_code":"855019447"},
{"city_id":400,"name":"Codajás","postal_code":"484531141"},
{"city_id":401,"name":"Tangkeng","postal_code":"970588003"},
{"city_id":402,"name":"Velizh","postal_code":"759614027"},
{"city_id":403,"name":"Union","postal_code":"955181115"},
{"city_id":404,"name":"Oslo","postal_code":"537151507"},
{"city_id":405,"name":"Osek nad Bečvou","postal_code":"176012644"},
{"city_id":406,"name":"Cibeureum","postal_code":"162010579"},
{"city_id":407,"name":"Jingcheng","postal_code":"600311551"},
{"city_id":408,"name":"Schenectady","postal_code":"672144910"},
{"city_id":409,"name":"Gaoyan","postal_code":"752845347"},
{"city_id":410,"name":"Mitsukaidō","postal_code":"706018911"},
{"city_id":411,"name":"Kultayevo","postal_code":"573621355"},
{"city_id":412,"name":"General Alvear","postal_code":"482772930"},
{"city_id":413,"name":"Si Satchanalai","postal_code":"952032405"},
{"city_id":414,"name":"Évreux","postal_code":"14621"},
{"city_id":415,"name":"Linköping","postal_code":"756055145"},
{"city_id":416,"name":"Ar Ramthā","postal_code":"170554325"},
{"city_id":417,"name":"Paris 01","postal_code":"626501136"},
{"city_id":418,"name":"Västra Frölunda","postal_code":"462292887"},
{"city_id":419,"name":"Changtan","postal_code":"294069104"},
{"city_id":420,"name":"Brezovica","postal_code":"303150687"},
{"city_id":421,"name":"Mao","postal_code":"207074946"},
{"city_id":422,"name":"Hermanus","postal_code":"282602373"},
{"city_id":423,"name":"Ni’ao","postal_code":"024673620"},
{"city_id":424,"name":"Krumvíř","postal_code":"956912705"},
{"city_id":425,"name":"Rudnyy","postal_code":"263541184"},
{"city_id":426,"name":"Tianfu","postal_code":"996037005"},
{"city_id":427,"name":"Xing’an","postal_code":"705085705"},
{"city_id":428,"name":"Strážná","postal_code":"61081"},
{"city_id":429,"name":"Llacanora","postal_code":"265071127"},
{"city_id":430,"name":"Renliu","postal_code":"480922468"},
{"city_id":431,"name":"Xianyang","postal_code":"926916426"},
{"city_id":432,"name":"Kolwezi","postal_code":"982840450"},
{"city_id":433,"name":"Shuanghejiedao","postal_code":"286455720"},
{"city_id":434,"name":"Orléans","postal_code":"021556222"},
{"city_id":435,"name":"Longwei","postal_code":"601533328"},
{"city_id":436,"name":"Yipeng","postal_code":"331444742"},
{"city_id":437,"name":"Jaguaribe","postal_code":"744476429"},
{"city_id":438,"name":"Marihatag","postal_code":"808100578"},
{"city_id":439,"name":"Al Mālikīyah","postal_code":"384621413"},
{"city_id":440,"name":"Golem","postal_code":"80124"},
{"city_id":441,"name":"Youguzhuang","postal_code":"590111228"},
{"city_id":442,"name":"Fayzabad","postal_code":"392164500"},
{"city_id":443,"name":"Dzwola","postal_code":"486700001"},
{"city_id":444,"name":"Essen","postal_code":"836421026"},
{"city_id":445,"name":"Tembongraja","postal_code":"217847454"},
{"city_id":446,"name":"Datian","postal_code":"752676955"},
{"city_id":447,"name":"Qiuchuan","postal_code":"547295407"},
{"city_id":448,"name":"Ermidas do Sado","postal_code":"283410187"},
{"city_id":449,"name":"Cikeper","postal_code":"315013547"},
{"city_id":450,"name":"San Francisco","postal_code":"930101414"},
{"city_id":451,"name":"Enköping","postal_code":"712210792"},
{"city_id":452,"name":"Sanchahe","postal_code":"315152070"},
{"city_id":453,"name":"Tupiza","postal_code":"185011270"},
{"city_id":454,"name":"Varoška Rijeka","postal_code":"601220021"},
{"city_id":455,"name":"Suqin Huimin","postal_code":"600622420"},
{"city_id":456,"name":"Niort","postal_code":"212364978"},
{"city_id":457,"name":"Changning","postal_code":"59711"},
{"city_id":458,"name":"Mumen","postal_code":"802181235"},
{"city_id":459,"name":"Balzers","postal_code":"714961526"},
{"city_id":460,"name":"Kertasari","postal_code":"633761659"},
{"city_id":461,"name":"Burgos","postal_code":"176043555"},
{"city_id":462,"name":"Zachepylivka","postal_code":"688029804"},
{"city_id":463,"name":"Älmhult","postal_code":"997035007"},
{"city_id":464,"name":"Vigo","postal_code":"96028"},
{"city_id":465,"name":"Tangban","postal_code":"80123"},
{"city_id":466,"name":"Podedwórze","postal_code":"283410187"},
{"city_id":467,"name":"Tiandu","postal_code":"331263292"},
{"city_id":468,"name":"New York City","postal_code":"29102"},
{"city_id":469,"name":"Handan","postal_code":"330184200"},
{"city_id":470,"name":"Lentisqueira","postal_code":"342129559"},
{"city_id":471,"name":"Conceição da Feira","postal_code":"77380"},
{"city_id":472,"name":"Hamburg","postal_code":"616021308"},
{"city_id":473,"name":"Santa Catarina","postal_code":"240111713"},
{"city_id":474,"name":"Colca","postal_code":"462563761"},
{"city_id":475,"name":"Blois","postal_code":"63957"},
{"city_id":476,"name":"Xinyi","postal_code":"239011199"},
{"city_id":477,"name":"Bayangol","postal_code":"770561791"},
{"city_id":478,"name":"Novomyshastovskaya","postal_code":"656150650"},
{"city_id":479,"name":"São Roque","postal_code":"750691650"},
{"city_id":480,"name":"Broshniv-Osada","postal_code":"282750216"},
{"city_id":481,"name":"Paicol","postal_code":"551640979"},
{"city_id":482,"name":"Waterloo","postal_code":"981241738"},
{"city_id":483,"name":"Bakung","postal_code":"427171080"},
{"city_id":484,"name":"Xuhang","postal_code":"934360909"},
{"city_id":485,"name":"Douane","postal_code":"850144006"},
{"city_id":486,"name":"Porirua","postal_code":"330216809"},
{"city_id":487,"name":"Korhogo","postal_code":"228018679"},
{"city_id":488,"name":"Jayapura","postal_code":"561641890"},
{"city_id":489,"name":"La Julia","postal_code":"495032560"},
{"city_id":490,"name":"Soure","postal_code":"748491415"},
{"city_id":491,"name":"Salimbalan","postal_code":"658075076"},
{"city_id":492,"name":"Novo-Peredelkino","postal_code":"402181711"},
{"city_id":493,"name":"Pesochnoye","postal_code":"100296500"},
{"city_id":494,"name":"Banjar Tegal Belodan","postal_code":"479331033"},
{"city_id":495,"name":"Ordzhonikidzevskaya","postal_code":"327940220"},
{"city_id":496,"name":"Zehak","postal_code":"672034921"},
{"city_id":497,"name":"Santa Fe","postal_code":"287317756"},
{"city_id":498,"name":"Comendador","postal_code":"191787642"},
{"city_id":499,"name":"Huishangang","postal_code":"668661060"},
{"city_id":500,"name":"Lokoja","postal_code":"606123218"},
{"city_id":501,"name":"Libiąż","postal_code":"282751649"},
{"city_id":502,"name":"Kōchi-shi","postal_code":"026533428"},
{"city_id":503,"name":"Socabaya","postal_code":"104512552"},
{"city_id":504,"name":"Samparna","postal_code":"724017431"},
{"city_id":505,"name":"Dingqiao","postal_code":"100296574"},
{"city_id":506,"name":"Huangjingba","postal_code":"009191227"},
{"city_id":507,"name":"Donim","postal_code":"480711618"},
{"city_id":508,"name":"Nila Dua","postal_code":"752840795"},
{"city_id":509,"name":"Los Angeles","postal_code":"338040733"},
{"city_id":510,"name":"Saint-Étienne","postal_code":"295269142"},
{"city_id":511,"name":"Al Ḩumaydāt","postal_code":"864270290"},
{"city_id":512,"name":"Melaka","postal_code":"707912700"},
{"city_id":513,"name":"Ostrów Lubelski","postal_code":"850860430"},
{"city_id":514,"name":"Gołkowice","postal_code":"331576842"},
{"city_id":515,"name":"Kufayrit","postal_code":"412401055"},
{"city_id":516,"name":"La Vega","postal_code":"483141723"},
{"city_id":517,"name":"Beauceville","postal_code":"856431009"},
{"city_id":518,"name":"Mexico","postal_code":"543052487"},
{"city_id":519,"name":"Paitan Este","postal_code":"049152000"},
{"city_id":520,"name":"Yangba","postal_code":"763843135"},
{"city_id":521,"name":"Las Vegas","postal_code":"207353358"},
{"city_id":522,"name":"Kangmei","postal_code":"009602698"},
{"city_id":523,"name":"Sepekov","postal_code":"627047450"},
{"city_id":524,"name":"Princeville","postal_code":"381046638"},
{"city_id":525,"name":"Yorii","postal_code":"573502510"},
{"city_id":526,"name":"Surcubamba","postal_code":"750013661"},
{"city_id":527,"name":"Bo Phloi","postal_code":"440044954"},
{"city_id":528,"name":"Huangguan","postal_code":"330213205"},
{"city_id":529,"name":"Cimanglid","postal_code":"29560"},
{"city_id":530,"name":"Vredenburg","postal_code":"083022123"},
{"city_id":531,"name":"General Belgrano","postal_code":"321414207"},
{"city_id":532,"name":"Ciudad Vieja","postal_code":"481829300"},
{"city_id":533,"name":"Yangdian","postal_code":"065191703"},
{"city_id":534,"name":"Revolucion","postal_code":"667200426"},
{"city_id":535,"name":"Liulin","postal_code":"207353358"},
{"city_id":536,"name":"Hongshan","postal_code":"606576051"},
{"city_id":537,"name":"Zhenchuan","postal_code":"89301"},
{"city_id":538,"name":"Kozmice","postal_code":"780282502"},
{"city_id":539,"name":"Lourdes","postal_code":"631600985"},
{"city_id":540,"name":"Derviçian","postal_code":"45342"},
{"city_id":541,"name":"Páchni","postal_code":"180782574"},
{"city_id":542,"name":"Wierzchowo","postal_code":"347441615"},
{"city_id":543,"name":"Napenay","postal_code":"28734"},
{"city_id":544,"name":"Amolatar","postal_code":"37804"},
{"city_id":545,"name":"Wuxiang","postal_code":"711055505"},
{"city_id":546,"name":"Bueng Samakkhi","postal_code":"672268123"},
{"city_id":547,"name":"San Carlos","postal_code":"220423307"},
{"city_id":548,"name":"Duogongma","postal_code":"238038654"},
{"city_id":549,"name":"Sakaiminato","postal_code":"458101041"},
{"city_id":550,"name":"Lawrenceville","postal_code":"394046389"},
{"city_id":551,"name":"San Antonio","postal_code":"370689022"},
{"city_id":552,"name":"Bengtsfors","postal_code":"520602163"},
{"city_id":553,"name":"Vakhtan","postal_code":"117584034"},
{"city_id":554,"name":"Baoshan","postal_code":"280251221"},
{"city_id":555,"name":"Studená","postal_code":"370275098"},
{"city_id":556,"name":"Sukatani","postal_code":"339062707"},
{"city_id":557,"name":"Changsha","postal_code":"726022990"},
{"city_id":558,"name":"Zhuhe","postal_code":"286774107"},
{"city_id":559,"name":"Krajan Satu","postal_code":"600483141"},
{"city_id":560,"name":"Zaliznychne","postal_code":"278921712"},
{"city_id":561,"name":"Hat Yai","postal_code":"303743070"},
{"city_id":562,"name":"Verkhniye Kigi","postal_code":"027195252"},
{"city_id":563,"name":"Březová nad Svitavou","postal_code":"495099563"},
{"city_id":564,"name":"Nanzhang Chengguanzhen","postal_code":"009222116"},
{"city_id":565,"name":"Antíparos","postal_code":"431303371"},
{"city_id":566,"name":"Tamberías","postal_code":"282311696"},
{"city_id":567,"name":"Weiyang","postal_code":"240111713"},
{"city_id":568,"name":"Bourges","postal_code":"287410190"},
{"city_id":569,"name":"Sendangwaru","postal_code":"480333849"},
{"city_id":570,"name":"Chenqiao","postal_code":"959666118"},
{"city_id":571,"name":"Springfield","postal_code":"446222026"},
{"city_id":572,"name":"Derbur","postal_code":"480922468"},
{"city_id":573,"name":"Kilkís","postal_code":"272890488"},
{"city_id":574,"name":"Mesa","postal_code":"605011720"},
{"city_id":575,"name":"Nanbin","postal_code":"327716737"},
{"city_id":576,"name":"Shen’ao","postal_code":"754184028"},
{"city_id":577,"name":"Dolo","postal_code":"379015004"},
{"city_id":578,"name":"Karakabak","postal_code":"570532238"},
{"city_id":579,"name":"Dubá","postal_code":"903042710"},
{"city_id":580,"name":"Bendan","postal_code":"11795"},
{"city_id":581,"name":"Saltpond","postal_code":"331724800"},
{"city_id":582,"name":"Matumadua","postal_code":"792011030"},
{"city_id":583,"name":"Sanshengyuan","postal_code":"634016630"},
{"city_id":584,"name":"Carcavelos","postal_code":"191956585"},
{"city_id":585,"name":"Pābna","postal_code":"774713911"},
{"city_id":586,"name":"Ogod","postal_code":"78155"},
{"city_id":587,"name":"Irákleion","postal_code":"53233"},
{"city_id":588,"name":"Wujiayao","postal_code":"434208507"},
{"city_id":589,"name":"Skaramangás","postal_code":"711055505"},
{"city_id":590,"name":"Buritizeiro","postal_code":"967932526"},
{"city_id":591,"name":"Solsona","postal_code":"708084375"},
{"city_id":592,"name":"Cucutilla","postal_code":"906402204"},
{"city_id":593,"name":"Bełk","postal_code":"631500001"},
{"city_id":594,"name":"Kadujajar","postal_code":"554172309"},
{"city_id":595,"name":"Corinto","postal_code":"571082560"},
{"city_id":596,"name":"Pho Duc","postal_code":"850122702"},
{"city_id":597,"name":"Shuikou","postal_code":"601073201"},
{"city_id":598,"name":"Daweishan","postal_code":"372156195"},
{"city_id":599,"name":"Chaumont","postal_code":"436063895"},
{"city_id":600,"name":"Xiaodukou","postal_code":"81252"},
{"city_id":601,"name":"Buliok","postal_code":"191828125"},
{"city_id":602,"name":"Tumbi","postal_code":"606493954"},
{"city_id":603,"name":"Andalucía","postal_code":"282627000"},
{"city_id":604,"name":"Ishige","postal_code":"474214704"},
{"city_id":605,"name":"El Paso","postal_code":"495031431"},
{"city_id":606,"name":"Kristianstad","postal_code":"295282180"},
{"city_id":607,"name":"Horad Rechytsa","postal_code":"112192916"},
{"city_id":608,"name":"Sulangan","postal_code":"752847051"},
{"city_id":609,"name":"Huamali","postal_code":"370689022"},
{"city_id":610,"name":"Buynaksk","postal_code":"079020483"},
{"city_id":611,"name":"Radojevo","postal_code":"481241190"},
{"city_id":612,"name":"Tarrafal","postal_code":"370275339"},
{"city_id":613,"name":"Dejilin","postal_code":"675601654"},
{"city_id":614,"name":"Taverny","postal_code":"331442046"},
{"city_id":615,"name":"Alvide","postal_code":"761043902"},
{"city_id":616,"name":"Bambakashat","postal_code":"303741860"},
{"city_id":617,"name":"Bắc Kạn","postal_code":"677400415"},
{"city_id":618,"name":"Marseille","postal_code":"495032560"},
{"city_id":619,"name":"Göteborg","postal_code":"640690256"},
{"city_id":620,"name":"Gabès","postal_code":"902554202"},
{"city_id":621,"name":"Huangyuan Chengguanzhen","postal_code":"178224903"},
{"city_id":622,"name":"Siqiao","postal_code":"317924255"},
{"city_id":623,"name":"Tempaling","postal_code":"612311258"},
{"city_id":624,"name":"Chengkou","postal_code":"711055505"},
{"city_id":625,"name":"Mahuta","postal_code":"411051595"},
{"city_id":626,"name":"Mafeteng","postal_code":"788525941"},
{"city_id":627,"name":"Tangerang","postal_code":"805389071"},
{"city_id":628,"name":"Werangere","postal_code":"391930157"},
{"city_id":629,"name":"Blois","postal_code":"764501390"},
{"city_id":630,"name":"Sanfins","postal_code":"284032334"},
{"city_id":631,"name":"Szczecinek","postal_code":"726323541"},
{"city_id":632,"name":"Strasbourg","postal_code":"96362"},
{"city_id":633,"name":"Xinxu","postal_code":"105624702"},
{"city_id":634,"name":"Vista Hermosa","postal_code":"928684203"},
{"city_id":635,"name":"Matsumoto","postal_code":"639331523"},
{"city_id":636,"name":"Vacha","postal_code":"410317490"},
{"city_id":637,"name":"Vidzy","postal_code":"527322940"},
{"city_id":638,"name":"Yanbei","postal_code":"600854980"},
{"city_id":639,"name":"Basa","postal_code":"140943201"},
{"city_id":640,"name":"Modis","postal_code":"137902050"},
{"city_id":641,"name":"Fanzeres","postal_code":"985844404"},
{"city_id":642,"name":"Trzciana","postal_code":"604450000"},
{"city_id":643,"name":"Watuagung","postal_code":"110401210"},
{"city_id":644,"name":"Santisimo Rosario","postal_code":"634589744"},
{"city_id":645,"name":"Woerden","postal_code":"599012619"},
{"city_id":646,"name":"Skýros","postal_code":"080533160"},
{"city_id":647,"name":"Bolotnoye","postal_code":"287792722"},
{"city_id":648,"name":"Qiancang","postal_code":"469049010"},
{"city_id":649,"name":"Nguluhan","postal_code":"716542562"},
{"city_id":650,"name":"Dujiajing","postal_code":"765080001"},
{"city_id":651,"name":"Sao Hai","postal_code":"303743070"},
{"city_id":652,"name":"Munduk","postal_code":"753202507"},
{"city_id":653,"name":"Svetlanovskiy","postal_code":"900741515"},
{"city_id":654,"name":"Ar Riqāmā","postal_code":"75217"},
{"city_id":655,"name":"Cheping","postal_code":"982744126"},
{"city_id":656,"name":"Vári","postal_code":"760107445"},
{"city_id":657,"name":"Okahandja","postal_code":"483313286"},
{"city_id":658,"name":"Maxiao","postal_code":"722023500"},
{"city_id":659,"name":"Konstantynów Łódzki","postal_code":"678640820"},
{"city_id":660,"name":"Gasi","postal_code":"25705"},
{"city_id":661,"name":"Huntsville","postal_code":"83467"},
{"city_id":662,"name":"Saltsjö-Boo","postal_code":"331452900"},
{"city_id":663,"name":"Paucar","postal_code":"604400000"},
{"city_id":664,"name":"Siva","postal_code":"441225203"},
{"city_id":665,"name":"Bảo Lộc","postal_code":"198053165"},
{"city_id":666,"name":"Chotepe","postal_code":"729170626"},
{"city_id":667,"name":"Ubatã","postal_code":"410317490"},
{"city_id":668,"name":"Sunagawa","postal_code":"112051221"},
{"city_id":669,"name":"Luoshan","postal_code":"427171080"},
{"city_id":670,"name":"Guaitarilla","postal_code":"107016807"},
{"city_id":671,"name":"Akouda","postal_code":"242660200"},
{"city_id":672,"name":"Lubu","postal_code":"542351401"},
{"city_id":673,"name":"Caratinga","postal_code":"718018217"},
{"city_id":674,"name":"Necochea","postal_code":"182351596"},
{"city_id":675,"name":"New Glasgow","postal_code":"191461414"},
{"city_id":676,"name":"Nilanapo","postal_code":"282751803"},
{"city_id":677,"name":"Mozhga","postal_code":"832111362"},
{"city_id":678,"name":"Ledeunu","postal_code":"028604400"},
{"city_id":679,"name":"Karungdong","postal_code":"295020567"},
{"city_id":680,"name":"Song’ao","postal_code":"271035614"},
{"city_id":681,"name":"Bagumbayan","postal_code":"177011978"},
{"city_id":682,"name":"Frashër","postal_code":"295660547"},
{"city_id":683,"name":"Alcanhões","postal_code":"323221078"},
{"city_id":684,"name":"Shaoguan","postal_code":"835010816"},
{"city_id":685,"name":"Angao","postal_code":"191404105"},
{"city_id":686,"name":"Huangcun","postal_code":"604384804"},
{"city_id":687,"name":"Sydney","postal_code":"714181089"},
{"city_id":688,"name":"Mari","postal_code":"257049300"},
{"city_id":689,"name":"Letlhakeng","postal_code":"891022386"},
{"city_id":690,"name":"Wugong","postal_code":"980574934"},
{"city_id":691,"name":"Luobuqiongzi","postal_code":"535301228"},
{"city_id":692,"name":"Digos","postal_code":"633532559"},
{"city_id":693,"name":"Qingyang","postal_code":"959263310"},
{"city_id":694,"name":"Hongsung","postal_code":"138503531"},
{"city_id":695,"name":"Nicoya","postal_code":"115071712"},
{"city_id":696,"name":"Tuba","postal_code":"114151833"},
{"city_id":697,"name":"Thanatpin","postal_code":"482772930"},
{"city_id":698,"name":"Leonidovo","postal_code":"776657600"},
{"city_id":699,"name":"Yezhi","postal_code":"805384337"},
{"city_id":700,"name":"Novyye Kuz’minki","postal_code":"273019228"},
{"city_id":701,"name":"Xanxerê","postal_code":"959666118"},
{"city_id":702,"name":"Magdalena","postal_code":"959719507"},
{"city_id":703,"name":"Forécariah","postal_code":"11543"},
{"city_id":704,"name":"Loučeň","postal_code":"193652100"},
{"city_id":705,"name":"Almirante Tamandaré","postal_code":"622743342"},
{"city_id":706,"name":"Karata","postal_code":"914361995"},
{"city_id":707,"name":"Fengshan","postal_code":"508641146"},
{"city_id":708,"name":"Léfka","postal_code":"764501390"},
{"city_id":709,"name":"Kuryłówka","postal_code":"320664065"},
{"city_id":710,"name":"Ninomiya","postal_code":"180782574"},
{"city_id":711,"name":"Chiba","postal_code":"191783692"},
{"city_id":712,"name":"Seremban","postal_code":"232261930"},
{"city_id":713,"name":"Navashino","postal_code":"762625911"},
{"city_id":714,"name":"Sanxing","postal_code":"581023641"},
{"city_id":715,"name":"Jianjiang","postal_code":"387713227"},
{"city_id":716,"name":"Cabimas","postal_code":"483251927"},
{"city_id":717,"name":"Nangxian","postal_code":"693372312"},
{"city_id":718,"name":"Kavār","postal_code":"328044603"},
{"city_id":719,"name":"Pasir Mas","postal_code":"616021320"},
{"city_id":720,"name":"Seydi","postal_code":"183013006"},
{"city_id":721,"name":"Police nad Metují","postal_code":"483822201"},
{"city_id":722,"name":"Lab","postal_code":"768493024"},
{"city_id":723,"name":"Cantoria","postal_code":"191044319"},
{"city_id":724,"name":"Libog","postal_code":"785398471"},
{"city_id":725,"name":"Angol","postal_code":"398194256"},
{"city_id":726,"name":"Guihuaquan","postal_code":"711112394"},
{"city_id":727,"name":"Dolní Rychnov","postal_code":"112225801"},
{"city_id":728,"name":"Krasnaye","postal_code":"900101513"},
{"city_id":729,"name":"Kalisabuk","postal_code":"480334716"},
{"city_id":730,"name":"Podol’sk","postal_code":"371661138"},
{"city_id":731,"name":"Camatindi","postal_code":"228031430"},
{"city_id":732,"name":"Nanpiao","postal_code":"900331352"},
{"city_id":733,"name":"Nangaroro","postal_code":"735340100"},
{"city_id":734,"name":"Kondoa","postal_code":"678440020"},
{"city_id":735,"name":"Edissiya","postal_code":"33126"},
{"city_id":736,"name":"Taoyuan","postal_code":"481829583"},
{"city_id":737,"name":"Oster","postal_code":"754184028"},
{"city_id":738,"name":"Fucha","postal_code":"680470100"},
{"city_id":739,"name":"San Luis Ixcán","postal_code":"758401428"},
{"city_id":740,"name":"Novoalekseyevskaya","postal_code":"863011641"},
{"city_id":741,"name":"Santa Monica","postal_code":"127013027"},
{"city_id":742,"name":"Sholokhove","postal_code":"603041507"},
{"city_id":743,"name":"Pasirlaja","postal_code":"841075715"},
{"city_id":744,"name":"Santa Elena de Uairén","postal_code":"753200757"},
{"city_id":745,"name":"Rio de Moinhos","postal_code":"711033950"},
{"city_id":746,"name":"Açu","postal_code":"782401803"},
{"city_id":747,"name":"New Orleans","postal_code":"770542413"},
{"city_id":748,"name":"Banatski Despotovac","postal_code":"850122702"},
{"city_id":749,"name":"Jajce","postal_code":"461352212"},
{"city_id":750,"name":"Rivadavia","postal_code":"240111713"},
{"city_id":751,"name":"Bashan","postal_code":"163352945"},
{"city_id":752,"name":"Vale de Mendiz","postal_code":"474034011"},
{"city_id":753,"name":"Lincheng","postal_code":"704332330"},
{"city_id":754,"name":"Bapska","postal_code":"462021264"},
{"city_id":755,"name":"Neuilly-sur-Seine","postal_code":"672034921"},
{"city_id":756,"name":"Fengyuan","postal_code":"331463019"},
{"city_id":757,"name":"Talavera","postal_code":"974202045"},
{"city_id":758,"name":"Monticello","postal_code":"370275098"},
{"city_id":759,"name":"Beixinjie","postal_code":"019451402"},
{"city_id":760,"name":"Athlone","postal_code":"21093"},
{"city_id":761,"name":"Chelgard","postal_code":"107016807"},
{"city_id":762,"name":"Umeå","postal_code":"100102640"},
{"city_id":763,"name":"Mandor","postal_code":"852224783"},
{"city_id":764,"name":"Tiehe","postal_code":"007160377"},
{"city_id":765,"name":"Nai Harn","postal_code":"571067232"},
{"city_id":766,"name":"Linjiang","postal_code":"331662227"},
{"city_id":767,"name":"Jīsh","postal_code":"871023273"},
{"city_id":768,"name":"Huangge","postal_code":"372156293"},
{"city_id":769,"name":"Holýšov","postal_code":"586210940"},
{"city_id":770,"name":"Sukamahi Satu","postal_code":"331552305"},
{"city_id":771,"name":"Riobamba","postal_code":"181036202"},
{"city_id":772,"name":"Petrovsk","postal_code":"325238900"},
{"city_id":773,"name":"Shanghu","postal_code":"593270268"},
{"city_id":774,"name":"Pirok","postal_code":"342081025"},
{"city_id":775,"name":"Zepita","postal_code":"617613558"},
{"city_id":776,"name":"Saint-Denis","postal_code":"496608904"},
{"city_id":777,"name":"Sitampiky","postal_code":"760107445"},
{"city_id":778,"name":"Pameče","postal_code":"271035614"},
{"city_id":779,"name":"Bizerte","postal_code":"296072101"},
{"city_id":780,"name":"Tajrīsh","postal_code":"597540352"},
{"city_id":781,"name":"Maracanaú","postal_code":"480333849"},
{"city_id":782,"name":"Kushnarënkovo","postal_code":"623160105"},
{"city_id":783,"name":"Rejowinangun","postal_code":"714595102"},
{"city_id":784,"name":"Jargalant","postal_code":"028954712"},
{"city_id":785,"name":"Puck","postal_code":"301173818"},
{"city_id":786,"name":"Mirzāpur","postal_code":"112123139"},
{"city_id":787,"name":"Charopó","postal_code":"317508857"},
{"city_id":788,"name":"Piran","postal_code":"240180600"},
{"city_id":789,"name":"Bonneville","postal_code":"342335056"},
{"city_id":790,"name":"Yaoundé","postal_code":"604479057"},
{"city_id":791,"name":"Markópoulo","postal_code":"754560511"},
{"city_id":792,"name":"Kálamos","postal_code":"314056736"},
{"city_id":793,"name":"Edsbyn","postal_code":"402012587"},
{"city_id":794,"name":"Kuruman","postal_code":"49501"},
{"city_id":795,"name":"Vyšší Brod","postal_code":"415011689"},
{"city_id":796,"name":"Val-d'Or","postal_code":"024469132"},
{"city_id":797,"name":"Sierpc","postal_code":"788347016"},
{"city_id":798,"name":"Yaroslavl","postal_code":"583012798"},
{"city_id":799,"name":"Järvakandi","postal_code":"489104699"},
{"city_id":800,"name":"Dranoc","postal_code":"388027058"},
{"city_id":801,"name":"Sandefjord","postal_code":"394017200"},
{"city_id":802,"name":"Pustomyty","postal_code":"717304841"},
{"city_id":803,"name":"Līvāni","postal_code":"333093750"},
{"city_id":804,"name":"Ariguaní","postal_code":"334688850"},
{"city_id":805,"name":"Farroupilha","postal_code":"595011231"},
{"city_id":806,"name":"Dumandesa","postal_code":"593301943"},
{"city_id":807,"name":"San Isidro","postal_code":"100012603"},
{"city_id":808,"name":"Weizhou","postal_code":"497358253"},
{"city_id":809,"name":"Fenglin","postal_code":"554033791"},
{"city_id":810,"name":"Cielmice","postal_code":"914011429"},
{"city_id":811,"name":"Sigaozhuang","postal_code":"117012711"},
{"city_id":812,"name":"Camperdown","postal_code":"741281805"},
{"city_id":813,"name":"Shanxi","postal_code":"240111713"},
{"city_id":814,"name":"Daishan","postal_code":"282751803"},
{"city_id":815,"name":"Yanzhou","postal_code":"73070"},
{"city_id":816,"name":"Qarqīn","postal_code":"934360909"},
{"city_id":817,"name":"Daping","postal_code":"601974090"},
{"city_id":818,"name":"San Felipe","postal_code":"761916078"},
{"city_id":819,"name":"Werinama","postal_code":"106052523"},
{"city_id":820,"name":"Lam Plai Mat","postal_code":"630318014"},
{"city_id":821,"name":"Chernyakhovsk","postal_code":"503150305"},
{"city_id":822,"name":"Ad Dasmah","postal_code":"543079070"},
{"city_id":823,"name":"Sumbersih","postal_code":"980026132"},
{"city_id":824,"name":"Sukagawa","postal_code":"021111552"},
{"city_id":825,"name":"Nanger","postal_code":"500600305"},
{"city_id":826,"name":"Menampukrajan","postal_code":"505307698"},
{"city_id":827,"name":"Tandel","postal_code":"381202177"},
{"city_id":828,"name":"Nesterovskaya","postal_code":"110303839"},
{"city_id":829,"name":"Mosina","postal_code":"021451446"},
{"city_id":830,"name":"Łużna","postal_code":"331434842"},
{"city_id":831,"name":"Shentang","postal_code":"802044507"},
{"city_id":832,"name":"Koszarawa","postal_code":"278042237"},
{"city_id":833,"name":"Komsomol’skiy","postal_code":"751486202"},
{"city_id":834,"name":"Amiens","postal_code":"270167360"},
{"city_id":835,"name":"Stefanavíkion","postal_code":"467332303"},
{"city_id":836,"name":"Čajetina","postal_code":"174032608"},
{"city_id":837,"name":"Kasreman Wetan","postal_code":"728300738"},
{"city_id":838,"name":"Drawsko Pomorskie","postal_code":"366042725"},
{"city_id":839,"name":"Sukošan","postal_code":"283410187"},
{"city_id":840,"name":"Hobo","postal_code":"331263168"},
{"city_id":841,"name":"Qal‘ah-ye Fārsī","postal_code":"923241801"},
{"city_id":842,"name":"Volokolamsk","postal_code":"792250370"},
{"city_id":843,"name":"Wailebe","postal_code":"381042127"},
{"city_id":844,"name":"Cláudio","postal_code":"303741891"},
{"city_id":845,"name":"Bertioga","postal_code":"933064201"},
{"city_id":846,"name":"Citeureup","postal_code":"80911"},
{"city_id":847,"name":"Lokolande","postal_code":"853662464"},
{"city_id":848,"name":"Berthierville","postal_code":"968171600"},
{"city_id":849,"name":"Meiktila","postal_code":"427171080"},
{"city_id":850,"name":"Campina Grande do Sul","postal_code":"115721551"},
{"city_id":851,"name":"Cerenti","postal_code":"748482822"},
{"city_id":852,"name":"Casal do Sapo","postal_code":"200324540"},
{"city_id":853,"name":"La Jagua de Ibirico","postal_code":"427171080"},
{"city_id":854,"name":"Gosë e Madhe","postal_code":"294424203"},
{"city_id":855,"name":"Franca","postal_code":"92543"},
{"city_id":856,"name":"Rybno","postal_code":"454295164"},
{"city_id":857,"name":"Tajimi","postal_code":"433112305"},
{"city_id":858,"name":"Nürnberg","postal_code":"240607017"},
{"city_id":859,"name":"Ganghwa-gun","postal_code":"191044319"},
{"city_id":860,"name":"Qindu","postal_code":"853872743"},
{"city_id":861,"name":"Santa Maria","postal_code":"421029010"},
{"city_id":862,"name":"Getafe","postal_code":"750243178"},
{"city_id":863,"name":"Студеничани","postal_code":"026015133"},
{"city_id":864,"name":"Blaye","postal_code":"770395509"},
{"city_id":865,"name":"Kildare","postal_code":"331581101"},
{"city_id":866,"name":"Wojnicz","postal_code":"158011440"},
{"city_id":867,"name":"Lebowakgomo","postal_code":"726532953"},
{"city_id":868,"name":"Riachão do Jacuípe","postal_code":"784105127"},
{"city_id":869,"name":"Oehaunu","postal_code":"724013111"},
{"city_id":870,"name":"Fontaínhas","postal_code":"33173"},
{"city_id":871,"name":"Kauhan","postal_code":"282602262"},
{"city_id":872,"name":"Repki","postal_code":"60616"},
{"city_id":873,"name":"Ikoma","postal_code":"676541406"},
{"city_id":874,"name":"Avon","postal_code":"837010640"},
{"city_id":875,"name":"Farsta","postal_code":"021182690"},
{"city_id":876,"name":"Wińsko","postal_code":"282322861"},
{"city_id":877,"name":"Urung","postal_code":"079012530"},
{"city_id":878,"name":"Sóc Sơn","postal_code":"480922468"},
{"city_id":879,"name":"Lom Kao","postal_code":"852096635"},
{"city_id":880,"name":"Vary","postal_code":"850151740"},
{"city_id":881,"name":"Zhonghualu","postal_code":"272624303"},
{"city_id":882,"name":"Pangawaren","postal_code":"325132699"},
{"city_id":883,"name":"Bordeaux","postal_code":"609361477"},
{"city_id":884,"name":"Diriomo","postal_code":"006590938"},
{"city_id":885,"name":"Mengxi","postal_code":"189600902"},
{"city_id":886,"name":"João Pessoa","postal_code":"462901024"},
{"city_id":887,"name":"Arazane","postal_code":"161462057"},
{"city_id":888,"name":"Myeik","postal_code":"515372057"},
{"city_id":889,"name":"Gävle","postal_code":"212231558"},
{"city_id":890,"name":"Święciechowa","postal_code":"331251513"},
{"city_id":891,"name":"Ekenäs","postal_code":"713060118"},
{"city_id":892,"name":"Firminópolis","postal_code":"678780948"},
{"city_id":893,"name":"Barão de Cocais","postal_code":"212790511"},
{"city_id":894,"name":"Berezayka","postal_code":"477061230"},
{"city_id":895,"name":"Ndano","postal_code":"288030477"},
{"city_id":896,"name":"Loyola","postal_code":"415022917"},
{"city_id":897,"name":"Trindade","postal_code":"070032547"},
{"city_id":898,"name":"Lille","postal_code":"831109621"},
{"city_id":899,"name":"Sibaté","postal_code":"334096501"},
{"city_id":900,"name":"Kista","postal_code":"427171080"},
{"city_id":901,"name":"Tomé","postal_code":"333344135"},
{"city_id":902,"name":"Philadelphia","postal_code":"514013038"},
{"city_id":903,"name":"Great Neck","postal_code":"754552338"},
{"city_id":904,"name":"Wilczyce","postal_code":"871023273"},
{"city_id":905,"name":"São Roque","postal_code":"337562236"},
{"city_id":906,"name":"Naghalin","postal_code":"260621347"},
{"city_id":907,"name":"Klagen","postal_code":"996720853"},
{"city_id":908,"name":"Kultayevo","postal_code":"475678755"},
{"city_id":909,"name":"Ad Darbāsīyah","postal_code":"483104076"},
{"city_id":910,"name":"Bella Vista","postal_code":"33334"},
{"city_id":911,"name":"Thị Trấn Yên Ninh","postal_code":"46501"},
{"city_id":912,"name":"Usu","postal_code":"655369210"},
{"city_id":913,"name":"Philadelphia","postal_code":"191251012"},
{"city_id":914,"name":"Jayune","postal_code":"779015748"},
{"city_id":915,"name":"Crespo","postal_code":"571175074"},
{"city_id":916,"name":"Ferme-Neuve","postal_code":"946123466"},
{"city_id":917,"name":"Pappádos","postal_code":"58540"},
{"city_id":918,"name":"Houjia","postal_code":"875716253"},
{"city_id":919,"name":"Malino","postal_code":"628121969"},
{"city_id":920,"name":"Karara","postal_code":"588013821"},
{"city_id":921,"name":"Villamaría","postal_code":"982721108"},
{"city_id":922,"name":"Sherwood Park","postal_code":"482772930"},
{"city_id":923,"name":"Jincun","postal_code":"283418820"},
{"city_id":924,"name":"Xujiafang","postal_code":"178224903"},
{"city_id":925,"name":"Cimuncang","postal_code":"331553009"},
{"city_id":926,"name":"Vyborg","postal_code":"58368"},
{"city_id":927,"name":"Marsaxlokk","postal_code":"391590339"},
{"city_id":928,"name":"Cabrobó","postal_code":"920371224"},
{"city_id":929,"name":"Cabugao","postal_code":"100012603"},
{"city_id":930,"name":"Laval","postal_code":"92805"},
{"city_id":931,"name":"Bertelhe","postal_code":"282603957"},
{"city_id":932,"name":"Jiaoxie","postal_code":"757012209"},
{"city_id":933,"name":"Ibaté","postal_code":"473031190"},
{"city_id":934,"name":"San Rafael","postal_code":"070554617"},
{"city_id":935,"name":"Uście Gorlickie","postal_code":"735020129"},
{"city_id":936,"name":"Tlogowetan","postal_code":"485035902"},
{"city_id":937,"name":"Arīḩā","postal_code":"278042237"},
{"city_id":938,"name":"Itajuípe","postal_code":"601344203"},
{"city_id":939,"name":"Goubangzi","postal_code":"23834"},
{"city_id":940,"name":"Balung Barat","postal_code":"705051266"},
{"city_id":941,"name":"Predavac","postal_code":"712210792"},
{"city_id":942,"name":"Laironja","postal_code":"331463019"},
{"city_id":943,"name":"Desa Baregbeg","postal_code":"029052401"},
{"city_id":944,"name":"Quanshang","postal_code":"270218770"},
{"city_id":945,"name":"Kristiansand S","postal_code":"726012911"},
{"city_id":946,"name":"Rasskazovo","postal_code":"762483038"},
{"city_id":947,"name":"Chełm","postal_code":"335593232"},
{"city_id":948,"name":"Huazhaizi","postal_code":"295269142"},
{"city_id":949,"name":"Chichinales","postal_code":"210934152"},
{"city_id":950,"name":"Blagodarnyy","postal_code":"714493718"},
{"city_id":951,"name":"Maodao","postal_code":"482361822"},
{"city_id":952,"name":"Velyki Sorochyntsi","postal_code":"104634546"},
{"city_id":953,"name":"Seara","postal_code":"016022009"},
{"city_id":954,"name":"Malabago","postal_code":"604404906"},
{"city_id":955,"name":"Nagbacalan","postal_code":"719017752"},
{"city_id":956,"name":"Yangjia","postal_code":"344745519"},
{"city_id":957,"name":"Verkhnya Syrovatka","postal_code":"282633314"},
{"city_id":958,"name":"Lisakovsk","postal_code":"928797102"},
{"city_id":959,"name":"Wesoła","postal_code":"770812944"},
{"city_id":960,"name":"Daping","postal_code":"142142648"},
{"city_id":961,"name":"Banatski Despotovac","postal_code":"461422137"},
{"city_id":962,"name":"Semënovskoye","postal_code":"488672120"},
{"city_id":963,"name":"Fushëkuqe","postal_code":"727581452"},
{"city_id":964,"name":"Lis","postal_code":"850122702"},
{"city_id":965,"name":"Huai’an","postal_code":"750134912"},
{"city_id":966,"name":"Mineralnye Vody","postal_code":"779014551"},
{"city_id":967,"name":"Sulak","postal_code":"722023500"},
{"city_id":968,"name":"Yonglong","postal_code":"923072206"},
{"city_id":969,"name":"Madang","postal_code":"503124104"},
{"city_id":970,"name":"Jiulong","postal_code":"763084800"},
{"city_id":971,"name":"Jambu","postal_code":"925533789"},
{"city_id":972,"name":"Busungbiu","postal_code":"959263310"},
{"city_id":973,"name":"Zvëzdnyy","postal_code":"505252019"},
{"city_id":974,"name":"Las Flores","postal_code":"510467516"},
{"city_id":975,"name":"Muaratiga","postal_code":"752848457"},
{"city_id":976,"name":"Wafang","postal_code":"277054699"},
{"city_id":977,"name":"Hikari","postal_code":"981882978"},
{"city_id":978,"name":"Mvomero","postal_code":"452362725"},
{"city_id":979,"name":"Ibiporã","postal_code":"473312833"},
{"city_id":980,"name":"Jianghong","postal_code":"300157779"},
{"city_id":981,"name":"Fort Worth","postal_code":"291023149"},
{"city_id":982,"name":"Athmuqam","postal_code":"275570879"},
{"city_id":983,"name":"Khuean Ubonrat","postal_code":"365358970"},
{"city_id":984,"name":"Binuangan","postal_code":"331665474"},
{"city_id":985,"name":"An Naşr","postal_code":"441413393"},
{"city_id":986,"name":"Shiyan","postal_code":"972083158"},
{"city_id":987,"name":"Dobrzeń Wielki","postal_code":"282602262"},
{"city_id":988,"name":"Guruyan","postal_code":"460748874"},
{"city_id":989,"name":"Subkowy","postal_code":"212155216"},
{"city_id":990,"name":"Újezd","postal_code":"928216713"},
{"city_id":991,"name":"Gimo","postal_code":"470060236"},
{"city_id":992,"name":"Bangekdewa","postal_code":"672018542"},
{"city_id":993,"name":"Castanheira do Campo","postal_code":"331263129"},
{"city_id":994,"name":"Muli","postal_code":"474415709"},
{"city_id":995,"name":"Talata Mafara","postal_code":"501291645"},
{"city_id":996,"name":"Matsumoto","postal_code":"333093750"},
{"city_id":997,"name":"Cimara","postal_code":"33607"},
{"city_id":998,"name":"Kabinda","postal_code":"411797683"},
{"city_id":999,"name":"Hovtamej","postal_code":"18840"},
{"city_id":1000,"name":"Géfyra","postal_code":"77401"},
{"city_id":1001,"name":"Split","postal_code":"21000"}]